GSAT0224 (GALILEO 28)   
1 49810U 21116B   25099.03036392 -.00000105  00000+0  00000+0 0  9999
2 49810  57.2723 353.3919 0001245 290.6711 250.1077  1.70475823 20800
GSAT0225 (GALILEO 29)   
1 59598U 24079A   25101.68479304  .00000053  00000+0  00000+0 0  9994
2 59598  54.8589 113.1495 0003095 258.0470 103.7264  1.70474964  5969
GSAT0227 (GALILEO 30)   
1 59600U 24079C   25101.86531106  .00000053  00000+0  00000+0 0  9997
2 59600  54.8528 113.1445 0000424 306.3292  53.7121  1.70474805  6010
GSAT0232 (GALILEO 32)   
1 61182U 24167A   25103.30600080 -.00000015  00000+0  00000+0 0  9991
2 61182  55.3282 233.1066 0003128 199.6014 159.7210  1.70474416  3541
GSAT0226 (GALILEO 31)   
1 61183U 24167B   25103.70559921 -.00000012  00000+0  00000+0 0  9990
2 61183  55.3267 233.1014 0001759 155.6644 201.4683  1.70474538  3529
