[
    {
        "OBJECT_NAME": "GSAT0224 (GALILEO 28)",
        "OBJECT_ID": "2021-116B",
        "EPOCH": "2025-04-09T00:43:43.442688",
        "MEAN_MOTION": 1.70475823,
        "ECCENTRICITY": 0.0001245,
        "INCLINATION": 57.2723,
        "RA_OF_ASC_NODE": 353.3919,
        "ARG_OF_PERICENTER": 290.6711,
        "MEAN_ANOMALY": 250.1077,
        "EPHEMERIS_TYPE": 0,
        "CLASSIFICATION_TYPE": "U",
        "NORAD_CAT_ID": 49810,
        "ELEMENT_SET_NO": 999,
        "REV_AT_EPOCH": 2080,
        "BSTAR": 0,
        "MEAN_MOTION_DOT": -1.05e-06,
        "MEAN_MOTION_DDOT": 0
    },
    {
        "OBJECT_NAME": "GSAT0225 (GALILEO 29)",
        "OBJECT_ID": "2024-079A",
        "EPOCH": "2025-04-11T16:26:06.118656",
        "MEAN_MOTION": 1.70474964,
        "ECCENTRICITY": 0.0003095,
        "INCLINATION": 54.8589,
        "RA_OF_ASC_NODE": 113.1495,
        "ARG_OF_PERICENTER": 258.047,
        "MEAN_ANOMALY": 103.7264,
        "EPHEMERIS_TYPE": 0,
        "CLASSIFICATION_TYPE": "U",
        "NORAD_CAT_ID": 59598,
        "ELEMENT_SET_NO": 999,
        "REV_AT_EPOCH": 596,
        "BSTAR": 0,
        "MEAN_MOTION_DOT": 5.3e-07,
        "MEAN_MOTION_DDOT": 0
    },
    {
        "OBJECT_NAME": "GSAT0227 (GALILEO 30)",
        "OBJECT_ID": "2024-079C",
        "EPOCH": "2025-04-11T20:46:02.875584",
        "MEAN_MOTION": 1.70474805,
        "ECCENTRICITY": 4.24e-05,
        "INCLINATION": 54.8528,
        "RA_OF_ASC_NODE": 113.1445,
        "ARG_OF_PERICENTER": 306.3292,
        "MEAN_ANOMALY": 53.7121,
        "EPHEMERIS_TYPE": 0,
        "CLASSIFICATION_TYPE": "U",
        "NORAD_CAT_ID": 59600,
        "ELEMENT_SET_NO": 999,
        "REV_AT_EPOCH": 601,
        "BSTAR": 0,
        "MEAN_MOTION_DOT": 5.3e-07,
        "MEAN_MOTION_DDOT": 0
    },
    {
        "OBJECT_NAME": "GSAT0232 (GALILEO 32)",
        "OBJECT_ID": "2024-167A",
        "EPOCH": "2025-04-13T07:20:38.469120",
        "MEAN_MOTION": 1.70474416,
        "ECCENTRICITY": 0.0003128,
        "INCLINATION": 55.3282,
        "RA_OF_ASC_NODE": 233.1066,
        "ARG_OF_PERICENTER": 199.6014,
        "MEAN_ANOMALY": 159.721,
        "EPHEMERIS_TYPE": 0,
        "CLASSIFICATION_TYPE": "U",
        "NORAD_CAT_ID": 61182,
        "ELEMENT_SET_NO": 999,
        "REV_AT_EPOCH": 354,
        "BSTAR": 0,
        "MEAN_MOTION_DOT": -1.5e-07,
        "MEAN_MOTION_DDOT": 0
    },
    {
        "OBJECT_NAME": "GSAT0226 (GALILEO 31)",
        "OBJECT_ID": "2024-167B",
        "EPOCH": "2025-04-13T16:56:03.771744",
        "MEAN_MOTION": 1.70474538,
        "ECCENTRICITY": 0.0001759,
        "INCLINATION": 55.3267,
        "RA_OF_ASC_NODE": 233.1014,
        "ARG_OF_PERICENTER": 155.6644,
        "MEAN_ANOMALY": 201.4683,
        "EPHEMERIS_TYPE": 0,
        "CLASSIFICATION_TYPE": "U",
        "NORAD_CAT_ID": 61183,
        "ELEMENT_SET_NO": 999,
        "REV_AT_EPOCH": 352,
        "BSTAR": 0,
        "MEAN_MOTION_DOT": -1.2e-07,
        "MEAN_MOTION_DDOT": 0
    }
]